{"type":"FeatureCollection","features":[{"type":"Feature","properties":{"source":"Natural Earth 1:10m land (public domain)","use":"Philippines map placement only. Not a survey boundary."},"geometry":{"type":"MultiPolygon","coordinates":[[[[119.8215,4.9141],[119.8508,4.8879],[119.8369,4.8629],[119.7986,4.8798],[119.7904,4.906],[119.8044,4.9274],[119.8215,4.9141]]],[[[119.7861,5.0463],[119.7458,5.044],[119.7693,5.0976],[119.7984,5.121],[119.8125,5.0699],[119.7861,5.0463]]],[[[120.1305,5.1966],[120.1209,5.218],[120.1082,5.1708],[120.0859,5.1507],[120.0254,5.1605],[120.0049,5.1286],[119.9805,5.1265],[119.9541,5.0755],[119.9224,5.0877],[119.8916,5.0598],[119.8298,5.0488],[119.8193,5.0598],[119.8218,5.1306],[119.9427,5.1901],[119.9649,5.2226],[120.0869,5.259],[120.0974,5.29],[120.1338,5.3176],[120.2088,5.348],[120.2163,5.2768],[120.2439,5.2735],[120.2529,5.2515],[120.2166,5.115],[120.1846,5.1365],[120.1824,5.2044],[120.1636,5.1823],[120.1305,5.1966]]],[[[120.2717,5.2499],[120.2723,5.2415],[120.3052,5.2268],[120.3095,5.1981],[120.2695,5.1769],[120.2429,5.1965],[120.2676,5.2568],[120.2905,5.2401],[120.2717,5.2499]]],[[[120.7533,5.5031],[120.7586,5.5561],[120.7973,5.567],[120.7973,5.5198],[120.7744,5.4962],[120.7533,5.5031]]],[[[120.8799,5.4958],[120.8434,5.5101],[120.8198,5.5433],[120.8607,5.5744],[120.89,5.5579],[120.9092,5.5197],[120.8799,5.4958]]],[[[120.7993,5.6676],[120.8074,5.6957],[120.833,5.7068],[120.8827,5.6853],[120.7993,5.6676]]],[[[120.5393,6.3105],[120.5696,6.3719],[120.5954,6.376],[120.6043,6.3297],[120.5773,6.2515],[120.5456,6.2385],[120.4946,6.2493],[120.492,6.2674],[120.5221,6.2772],[120.5393,6.3105]]],[[[117.0613,7.2191],[117.0677,7.28],[117.1453,7.3355],[117.2463,7.3558],[117.2819,7.3323],[117.2734,7.2319],[117.2471,7.1832],[117.2297,7.1918],[117.1404,7.1676],[117.0989,7.1435],[117.0715,7.1025],[117.0613,7.2191]]],[[[116.948,7.3019],[117.0026,7.3557],[117.0169,7.3426],[117.0204,7.2946],[117.01,7.28],[116.9915,7.2972],[116.9767,7.2902],[116.9822,7.2533],[116.8865,7.2294],[116.9051,7.2089],[116.891,7.1937],[116.8518,7.1981],[116.9002,7.2874],[116.948,7.3019]]],[[[117.0715,7.8594],[117.0237,7.8218],[117.0262,7.7984],[116.9959,7.8076],[116.9963,7.8393],[116.9549,7.926],[116.9617,8.062],[116.9822,8.0273],[116.9968,8.0273],[117.0132,8.062],[117.0759,8.0696],[117.085,8.0578],[117.0916,8.0115],[117.0715,7.9932],[117.0868,7.8721],[117.0715,7.8594]]],[[[117.0684,8.0928],[117.0305,8.0683],[116.9959,8.103],[117.0454,8.1358],[117.0684,8.0928]]],[[[117.3196,8.3236],[117.3553,8.3027],[117.3595,8.2191],[117.3425,8.1972],[117.2897,8.1843],[117.27,8.2675],[117.2844,8.3227],[117.3196,8.3236]]],[[[117.1901,8.262],[117.1814,8.288],[117.2428,8.3432],[117.236,8.3227],[117.2608,8.3211],[117.2639,8.301],[117.1901,8.262]]],[[[119.3783,10.3441],[119.2573,10.222],[119.2207,10.0842],[119.1963,10.0563],[119.072,10.008],[118.8748,9.9719],[118.8193,9.939],[118.7742,9.9341],[118.7505,9.8875],[118.7847,9.7882],[118.7778,9.7342],[118.7356,9.7435],[118.7297,9.7804],[118.7009,9.7755],[118.7163,9.6926],[118.7429,9.6968],[118.7564,9.6677],[118.73,9.6653],[118.6953,9.5781],[118.6692,9.57],[118.4979,9.3137],[118.4308,9.2732],[118.3538,9.1832],[118.1891,9.156],[118.137,9.1308],[118.113,9.049],[118.0955,9.046],[118.0584,8.9521],[118.0137,8.8876],[117.9104,8.8297],[117.7554,8.6902],[117.6673,8.6647],[117.5656,8.6611],[117.5581,8.5964],[117.5129,8.5068],[117.4935,8.4997],[117.4722,8.5138],[117.345,8.4713],[117.1908,8.3383],[117.1904,8.3782],[117.2223,8.4382],[117.2223,8.5002],[117.27,8.589],[117.2639,8.6101],[117.28,8.605],[117.2915,8.6408],[117.3421,8.6843],[117.376,8.7468],[117.4356,8.7731],[117.5198,8.8997],[117.6227,8.9918],[117.6555,9.0579],[117.7123,9.0816],[117.7295,9.0642],[117.7619,9.0779],[117.7913,9.1348],[117.784,9.1514],[117.8665,9.2036],[117.9045,9.2612],[117.9895,9.2674],[118.0032,9.2333],[118.0544,9.2914],[118.1336,9.3432],[118.1336,9.3847],[118.1929,9.4218],[118.2163,9.478],[118.2772,9.5197],[118.3328,9.5864],[118.3601,9.6584],[118.4203,9.6807],[118.4243,9.6979],[118.5305,9.7742],[118.668,9.9744],[118.6565,9.9962],[118.7225,10.0358],[118.7717,10.1308],[118.7766,10.0831],[118.763,10.0692],[118.7795,10.0563],[118.8011,10.049],[118.8324,10.0836],[118.8158,10.1889],[118.8911,10.2133],[118.9336,10.2097],[118.9583,10.2353],[118.9497,10.2822],[119.0248,10.3096],[119.0339,10.3494],[118.9844,10.3441],[118.9764,10.3574],[119.002,10.3975],[119.0275,10.4072],[119.072,10.3915],[119.0843,10.4228],[119.1067,10.4256],[119.0857,10.4666],[119.1204,10.4877],[119.1353,10.3881],[119.23,10.4854],[119.2781,10.5082],[119.2507,10.556],[119.2908,10.5577],[119.3191,10.5901],[119.345,10.7236],[119.3169,10.7727],[119.2739,10.7717],[119.2661,10.8266],[119.2234,10.8508],[119.2576,10.8911],[119.2225,10.9417],[119.2472,10.9498],[119.2507,10.9259],[119.2644,10.9396],[119.2917,10.9327],[119.2781,10.9128],[119.2917,10.885],[119.2713,10.885],[119.2781,10.8749],[119.3128,10.8781],[119.3058,10.8571],[119.3333,10.8235],[119.3469,10.831],[119.405,10.7624],[119.4187,10.7699],[119.4451,10.7275],[119.4675,10.7327],[119.4397,10.796],[119.4568,10.831],[119.4182,10.8609],[119.3552,10.8778],[119.3469,10.8986],[119.3606,10.9327],[119.3247,10.9335],[119.32,11.0009],[119.3259,11.0228],[119.3606,11.001],[119.3274,11.0644],[119.335,11.1029],[119.3773,11.0562],[119.4153,11.0562],[119.4321,11.1222],[119.388,11.1866],[119.4133,11.1967],[119.429,11.2275],[119.4255,11.3135],[119.4738,11.3579],[119.4844,11.4105],[119.502,11.4233],[119.523,11.3399],[119.5388,11.3237],[119.5524,11.3374],[119.5671,11.3014],[119.561,11.2203],[119.5164,11.1175],[119.5618,11.059],[119.5724,11.0153],[119.5593,11.001],[119.5176,11.0119],[119.5046,10.885],[119.5316,10.8198],[119.5934,10.8371],[119.6027,10.8244],[119.5908,10.6724],[119.6536,10.6751],[119.6685,10.6522],[119.6345,10.6522],[119.6628,10.571],[119.7254,10.5186],[119.5632,10.3735],[119.4631,10.3785],[119.3783,10.3441]]],[[[119.8953,10.4807],[119.8065,10.4461],[119.7809,10.4722],[119.7783,10.5355],[119.7526,10.5398],[119.8499,10.6448],[119.9741,10.5954],[120.0112,10.5653],[119.9906,10.556],[119.9841,10.5313],[119.9502,10.5355],[119.9427,10.515],[119.9087,10.556],[119.9203,10.4973],[119.9149,10.4809],[119.8953,10.4807]]],[[[119.2898,10.9853],[119.301,10.9594],[119.2901,10.9508],[119.2624,10.9833],[119.2674,11.0187],[119.3019,11.0143],[119.2898,10.9853]]],[[[119.648,11.0153],[119.6131,11.0084],[119.5798,11.046],[119.5798,11.0978],[119.6321,11.0699],[119.648,11.0153]]],[[[119.6099,11.1567],[119.5833,11.1388],[119.5671,11.157],[119.5729,11.1791],[119.6131,11.2003],[119.6323,11.1816],[119.6099,11.1567]]],[[[119.7302,11.4564],[119.7162,11.4604],[119.7287,11.478],[119.7708,11.4404],[119.7852,11.4945],[119.8125,11.4604],[119.8236,11.4726],[119.8329,11.4604],[119.8445,11.4907],[119.826,11.5087],[119.8672,11.5156],[119.8698,11.4406],[119.8329,11.3784],[119.8206,11.3996],[119.8329,11.4262],[119.7954,11.433],[119.7708,11.4063],[119.7302,11.4564]]],[[[120.0142,11.6821],[119.967,11.6644],[119.9546,11.6801],[119.9564,11.7347],[119.9844,11.7142],[119.9771,11.7414],[120.0049,11.7825],[119.9771,11.7961],[119.9592,11.7659],[119.9292,11.7756],[119.9019,11.824],[119.9224,11.8377],[119.8745,11.893],[119.854,11.9544],[119.8916,11.9401],[119.8928,11.9626],[119.9197,11.9815],[119.9593,11.93],[120.0314,11.9245],[120.0081,11.9027],[120.0833,11.8604],[120.0501,11.8543],[120.0391,11.8104],[120.0799,11.7893],[120.0526,11.7619],[120.0671,11.7418],[120.047,11.7089],[120.0142,11.6821]]],[[[120.2764,11.9649],[120.2852,11.9302],[120.2634,11.9162],[120.2783,11.824],[120.2679,11.8162],[120.2033,11.9476],[120.2764,11.9649]]],[[[120.1421,12.0295],[120.1346,11.9748],[120.1141,11.9674],[120.0823,12.0015],[120.0215,11.9998],[119.9841,12.0257],[119.9424,12.0871],[119.895,12.2077],[119.8604,12.1592],[119.8477,12.1667],[119.8672,12.194],[119.8723,12.2517],[119.9224,12.2765],[119.8807,12.269],[119.885,12.3227],[119.9269,12.3165],[119.9359,12.2765],[120.0049,12.2629],[120.0799,12.2008],[120.1141,12.194],[120.0942,12.1667],[120.117,12.1664],[120.1961,12.112],[120.2044,12.1284],[120.224,12.1257],[120.2297,12.2187],[120.2583,12.1318],[120.2864,12.1354],[120.3421,12.0808],[120.3449,12.0533],[120.3152,12.0232],[120.3475,12.0295],[120.3529,12.0162],[120.3264,11.9953],[120.2749,12.0034],[120.2376,11.9879],[120.1421,12.0295]]],[[[120.3701,13.6671],[120.4099,13.656],[120.414,13.6275],[120.3097,13.6769],[120.3701,13.6671]]],[[[120.8755,13.6348],[120.8408,13.6556],[120.8285,13.6903],[120.8458,13.6721],[120.936,13.6516],[120.923,13.6294],[120.8755,13.6348]]],[[[120.1082,13.7768],[120.0829,13.8179],[120.093,13.8653],[120.2376,13.8046],[120.2717,13.7525],[120.2527,13.7244],[120.2854,13.6914],[120.2643,13.6737],[120.2035,13.7358],[120.1082,13.7768]]],[[[120.3134,13.7799],[120.2603,13.8081],[120.2858,13.8374],[120.329,13.8075],[120.3134,13.7799]]],[[[119.9971,16.3308],[120.0122,16.2415],[119.9929,16.2302],[119.9224,16.3038],[119.9732,16.3506],[119.9971,16.3308]]],[[[119.9083,16.3966],[119.9098,16.4214],[119.9349,16.4255],[119.9603,16.3765],[119.9083,16.3966]]],[[[120.8923,5.7414],[120.9043,5.7591],[120.9294,5.7332],[120.9099,5.7],[120.8909,5.7098],[120.8923,5.7414]]],[[[121.197,5.8009],[121.1465,5.7895],[121.135,5.8215],[121.1527,5.8431],[121.1799,5.8467],[121.2346,5.8107],[121.197,5.8009]]],[[[121.252,5.8968],[121.2278,5.9421],[121.1895,5.9403],[121.0811,5.8882],[121.0498,5.9163],[121.0083,5.9238],[120.9341,5.8857],[120.8919,5.9201],[120.8718,5.961],[120.9055,6.015],[121.0017,6.0576],[121.0422,6.0971],[121.1148,6.0951],[121.179,6.0636],[121.2178,5.9989],[121.2713,6.0262],[121.4212,5.9871],[121.4287,5.9698],[121.4194,5.948],[121.3918,5.9399],[121.3895,5.9099],[121.3406,5.9033],[121.2925,5.8588],[121.2617,5.872],[121.252,5.8968]]],[[[121.694,6.0553],[121.69,6.0419],[121.7252,6.0303],[121.6907,5.9984],[121.653,5.9968],[121.6831,6.0292],[121.674,6.0592],[121.694,6.0553]]],[[[121.4251,6.0107],[121.3845,6.0154],[121.4062,6.0513],[121.4297,6.0397],[121.4251,6.0107]]],[[[121.8577,6.0023],[121.8049,6.0372],[121.7766,6.0774],[121.8709,6.0331],[121.9404,6.0461],[121.9432,6.0336],[121.9128,6.016],[121.8577,6.0023]]],[[[121.5896,6.6201],[121.5825,6.6317],[121.6167,6.6723],[121.6289,6.5886],[121.6164,6.5614],[121.5896,6.6201]]],[[[121.0667,10.8911],[121.0933,10.9104],[121.0872,10.8235],[121.0347,10.8198],[121.0176,10.8341],[121.0252,10.8644],[121.0667,10.8911]]],[[[121.5261,11.8466],[121.4954,11.8278],[121.4126,11.8403],[121.4429,11.868],[121.5261,11.8466]]],[[[121.5801,11.8989],[121.5497,11.8892],[121.5367,11.9023],[121.5407,11.9583],[121.5727,11.9462],[121.5801,11.8989]]],[[[121.4138,12.0146],[121.3843,12.0009],[121.3718,12.0111],[121.3587,12.1147],[121.4064,12.0624],[121.4138,12.0146]]],[[[121.935,12.0386],[121.9101,12.0652],[121.9284,12.0949],[121.9574,12.0645],[121.9547,12.0351],[121.935,12.0386]]],[[[121.131,12.1644],[121.0901,12.1743],[121.0516,12.2209],[121.0396,12.2515],[121.0599,12.2784],[121.0881,12.2671],[121.131,12.1644]]],[[[122.041,12.1793],[122.0191,12.1561],[122.0122,12.1046],[121.9911,12.1285],[121.9917,12.1592],[121.965,12.1614],[121.959,12.1778],[121.9637,12.2281],[121.9872,12.2001],[122.0021,12.2444],[121.9207,12.3029],[121.9241,12.3393],[121.9466,12.3994],[121.9783,12.4118],[121.9932,12.4418],[121.9959,12.5927],[122.105,12.6418],[122.1152,12.6663],[122.1457,12.6575],[122.1563,12.6321],[122.1289,12.6254],[122.1304,12.5284],[122.0808,12.3155],[122.0365,12.2141],[122.0599,12.1728],[122.041,12.1793]]],[[[122.0576,12.7901],[122.0181,12.8023],[122.0773,12.8346],[122.0693,12.804],[122.0576,12.7901]]],[[[121.43,12.482],[121.4124,12.415],[121.4436,12.3585],[121.3843,12.3686],[121.3958,12.2895],[121.3547,12.3241],[121.273,12.269],[121.245,12.2144],[121.1937,12.2418],[121.1136,12.2513],[121.0933,12.3037],[121.1011,12.3305],[121.116,12.3052],[121.1426,12.31],[121.1216,12.31],[121.0944,12.3454],[121.0873,12.3237],[121.0711,12.3325],[120.9811,12.4227],[120.9164,12.5124],[120.929,12.5776],[120.9124,12.6347],[120.8545,12.7153],[120.7979,12.7294],[120.7653,12.8314],[120.7767,12.9161],[120.741,13.0333],[120.6423,13.1833],[120.5598,13.2287],[120.5148,13.2305],[120.5262,13.2492],[120.48,13.3015],[120.4525,13.4202],[120.4082,13.4205],[120.356,13.3805],[120.3276,13.3969],[120.3067,13.4443],[120.3377,13.5053],[120.4032,13.5273],[120.5654,13.5131],[120.6902,13.4819],[120.7064,13.4904],[120.7546,13.4667],[120.9154,13.5167],[120.9284,13.505],[120.9502,13.5303],[120.9774,13.5303],[120.9797,13.5141],[120.957,13.503],[121.0269,13.4216],[121.1087,13.416],[121.1253,13.4048],[121.1283,13.372],[121.1411,13.4074],[121.1971,13.4409],[121.2178,13.4041],[121.3338,13.3106],[121.3762,13.2451],[121.4305,13.2243],[121.4436,13.1877],[121.4363,13.1461],[121.5444,13.1303],[121.5492,13.0906],[121.5017,13.0543],[121.4832,13.0147],[121.492,12.9133],[121.4778,12.8587],[121.4856,12.7685],[121.5261,12.7045],[121.5457,12.6112],[121.4815,12.539],[121.4378,12.5216],[121.4436,12.482],[121.43,12.482]]],[[[121.724,12.914],[121.7178,12.8996],[121.6991,12.9053],[121.6828,12.9244],[121.6886,12.9472],[121.7183,12.9473],[121.7317,12.9288],[121.724,12.914]]],[[[121.8172,13.3419],[121.8143,13.4505],[121.8587,13.5655],[121.8731,13.5685],[121.9092,13.5229],[121.9297,13.5446],[121.968,13.5237],[121.9979,13.5508],[122.0202,13.5336],[122.0191,13.5092],[122.0452,13.5092],[122.0438,13.4853],[122.0967,13.4797],[122.1221,13.4477],[122.1008,13.4339],[122.1289,13.3863],[122.1203,13.3566],[122.0396,13.2696],[122.0491,13.2484],[122.0088,13.2048],[121.9932,13.2016],[121.9092,13.2696],[121.875,13.2764],[121.8172,13.3419]]],[[[121.7947,13.9051],[121.7842,13.8795],[121.7757,13.9022],[121.7493,13.8877],[121.7459,13.9401],[121.7821,13.9345],[121.7947,13.9051]]],[[[121.9966,14.8414],[122.0237,14.7226],[122.0042,14.6737],[121.9402,14.6401],[121.9167,14.6491],[121.9087,14.671],[121.916,14.7221],[121.9349,14.7258],[121.9194,14.8102],[121.8836,14.8364],[121.8818,14.8837],[121.8557,14.9269],[121.8184,14.946],[121.8442,15.0454],[121.8937,15.0246],[121.9099,15.0502],[121.9938,15.0429],[122.0112,15.0272],[122.0054,15.0107],[122.0482,14.9995],[122.0531,14.9622],[122.0204,14.9937],[121.9951,14.9801],[122.0129,14.9329],[121.9681,14.9026],[121.978,14.8388],[121.9966,14.8414]]],[[[122.1432,17.7653],[122.1358,17.7373],[122.1563,17.7069],[122.1629,17.5933],[122.1971,17.4946],[122.2396,17.4268],[122.2511,17.3602],[122.2871,17.3606],[122.3137,17.3401],[122.3654,17.3537],[122.4026,17.306],[122.3978,17.3291],[122.4146,17.3191],[122.4436,17.2656],[122.4094,17.2752],[122.4231,17.2206],[122.4168,17.1458],[122.451,17.1142],[122.501,17.1398],[122.5291,17.0905],[122.4729,16.9897],[122.4647,16.8951],[122.4227,16.7943],[122.3001,16.5655],[122.2388,16.5041],[122.2319,16.4665],[122.2043,16.4348],[122.2176,16.3948],[122.2319,16.4153],[122.1919,16.3174],[122.1971,16.2917],[122.2319,16.319],[122.2039,16.2365],[122.1773,16.2303],[122.077,16.1327],[122.0593,16.0778],[121.9979,16.0311],[122.0335,16.1171],[122.0811,16.1484],[122.1016,16.2077],[122.1326,16.2255],[122.1353,16.2607],[122.0874,16.2553],[122.0669,16.1901],[122.0505,16.1809],[121.8682,16.1204],[121.8299,16.0904],[121.7523,16.0769],[121.6423,15.9696],[121.5778,15.9321],[121.5549,15.8289],[121.5746,15.7744],[121.6318,15.757],[121.6423,15.7369],[121.5945,15.6748],[121.6292,15.6611],[121.5737,15.6273],[121.5615,15.5914],[121.4956,15.5325],[121.4641,15.4215],[121.4263,15.3738],[121.3899,15.3779],[121.3816,15.3527],[121.3911,15.2663],[121.4137,15.2316],[121.4815,15.1825],[121.5081,15.0628],[121.615,14.8729],[121.5945,14.8592],[121.7249,14.7308],[121.7261,14.7202],[121.6492,14.7105],[121.6139,14.6899],[121.6082,14.6302],[121.6624,14.4174],[121.7347,14.3287],[121.7316,14.2804],[121.759,14.2466],[121.7316,14.1882],[121.78,14.1262],[121.9363,13.9952],[122.0879,13.9378],[122.2319,13.9064],[122.222,13.9521],[122.1834,13.989],[122.2933,13.9701],[122.2964,14.0028],[122.3137,14.0163],[122.2087,14.0876],[122.1629,14.1678],[122.1834,14.1467],[122.1956,14.1838],[122.2444,14.196],[122.2517,14.2503],[122.2637,14.2474],[122.2593,14.1882],[122.2732,14.1325],[122.2844,14.1259],[122.2933,14.1404],[122.2985,14.1293],[122.3001,14.092],[122.3457,14.1313],[122.3313,14.2003],[122.3555,14.1951],[122.348,14.2224],[122.3768,14.2285],[122.3662,14.2615],[122.4163,14.3248],[122.4312,14.3181],[122.4832,14.3467],[122.5193,14.3248],[122.5051,14.3459],[122.5278,14.3487],[122.6012,14.3248],[122.6047,14.3013],[122.6223,14.3112],[122.6443,14.2847],[122.6497,14.2975],[122.6907,14.2912],[122.6743,14.3161],[122.6799,14.3505],[122.7043,14.3459],[122.7217,14.3157],[122.7527,14.3322],[122.8026,14.2872],[122.8733,14.2652],[122.9031,14.2112],[122.9308,14.2018],[123.0122,14.1057],[123.0422,14.098],[123.0332,14.0231],[123.0816,13.989],[123.0884,13.9014],[123.0559,13.8613],[123.0498,13.7758],[123.1082,13.7221],[123.2249,13.7311],[123.2666,13.7494],[123.3018,13.7895],[123.315,13.8205],[123.2803,13.9064],[123.3255,13.94],[123.3355,13.9822],[123.3125,13.9408],[123.29,13.9346],[123.2346,13.9638],[123.2181,13.9927],[123.2542,14.0137],[123.2388,14.0231],[123.259,14.0312],[123.2523,14.0681],[123.3143,14.0511],[123.3008,14.0715],[123.3355,14.0715],[123.3318,14.0995],[123.3622,14.0436],[123.3454,14.0395],[123.3464,14.0163],[123.3901,14.0373],[123.3758,14.0101],[123.3963,14.0101],[123.4173,13.9064],[123.4447,13.9617],[123.4778,13.9505],[123.4925,13.9207],[123.5388,13.925],[123.6814,13.8847],[123.7117,13.9344],[123.804,13.8376],[123.9314,13.7904],[123.9688,13.7401],[123.9655,13.7147],[123.9375,13.7426],[123.9246,13.7289],[123.8594,13.7426],[123.7974,13.688],[123.7429,13.7104],[123.6667,13.7183],[123.648,13.7036],[123.5881,13.7289],[123.5705,13.723],[123.5266,13.606],[123.5389,13.601],[123.5363,13.5633],[123.5608,13.5712],[123.6055,13.5167],[123.6672,13.4856],[123.7254,13.4099],[123.7434,13.3403],[123.7946,13.3084],[123.8215,13.2429],[123.8255,13.2602],[123.8362,13.2561],[123.8556,13.2287],[123.7676,13.2243],[123.7495,13.1547],[123.7702,13.1108],[123.7458,13.0921],[123.7458,13.0642],[123.7977,13.0552],[123.883,13.1461],[123.9924,13.0916],[124.0816,13.0095],[124.1162,13.0744],[124.1846,13.0573],[124.1858,13.0208],[124.153,13.0013],[124.1162,12.9164],[124.1428,12.8144],[124.1294,12.6772],[124.0884,12.6288],[124.0951,12.5937],[124.0816,12.5837],[124.0952,12.5571],[124.0667,12.5414],[123.9832,12.5468],[123.9334,12.6222],[123.9143,12.6191],[123.8786,12.6452],[123.8425,12.7162],[123.8421,12.8012],[123.7936,12.8314],[123.8387,12.8393],[123.863,12.8724],[123.9067,12.8416],[123.9404,12.8483],[123.9588,12.88],[124.0025,12.8797],[124.0293,12.9118],[124.0252,12.9553],[123.9587,12.9543],[123.8934,12.9748],[123.8394,12.8882],[123.7839,12.8649],[123.7632,12.8786],[123.7254,12.8451],[123.7117,12.8724],[123.7327,12.8899],[123.6901,12.8887],[123.698,12.8649],[123.6773,12.8842],[123.6983,12.9309],[123.6685,12.9241],[123.6489,12.8863],[123.6052,12.8929],[123.5591,12.9379],[123.5031,12.9648],[123.4413,13.0369],[123.385,13.0441],[123.3101,13.0124],[123.279,13.1202],[123.3052,13.1986],[123.3008,13.2355],[123.2473,13.2792],[123.1909,13.359],[123.197,13.3865],[123.1688,13.4492],[123.0652,13.5018],[122.972,13.5275],[122.8591,13.6061],[122.8147,13.6538],[122.8626,13.6948],[122.7893,13.7685],[122.7527,13.7836],[122.7715,13.791],[122.7531,13.8105],[122.6907,13.832],[122.6532,13.8261],[122.6428,13.8388],[122.653,13.8624],[122.5845,13.9064],[122.5369,13.9611],[122.5159,13.9344],[122.4595,13.9379],[122.4163,13.9617],[122.4131,13.9481],[122.5096,13.82],[122.5125,13.7358],[122.4906,13.7406],[122.4855,13.7216],[122.4976,13.652],[122.55,13.5952],[122.636,13.5371],[122.6323,13.5207],[122.5671,13.5639],[122.6543,13.4404],[122.6727,13.3793],[122.6907,13.2287],[122.5881,13.174],[122.5051,13.2392],[122.5193,13.3106],[122.5011,13.3681],[122.3695,13.5498],[122.319,13.5922],[122.2586,13.592],[122.2593,13.606],[122.194,13.6228],[122.1184,13.7521],[122.0599,13.8046],[122.0537,13.7851],[121.9894,13.81],[121.937,13.8518],[121.8272,13.8997],[121.7863,13.9487],[121.7249,13.9691],[121.69,13.926],[121.4846,13.8518],[121.4334,13.7964],[121.4363,13.701],[121.4641,13.6948],[121.43,13.6569],[121.3748,13.6675],[121.2788,13.595],[121.1587,13.6395],[121.0804,13.6191],[121.0389,13.6328],[121.0535,13.7221],[121.0398,13.7587],[121.0038,13.7809],[120.981,13.7805],[120.9031,13.6929],[120.8875,13.6935],[120.8807,13.7169],[120.926,13.7617],[120.929,13.7836],[120.9092,13.8046],[120.9124,13.8818],[120.8767,13.9123],[120.7048,13.9274],[120.7009,13.8961],[120.7229,13.8554],[120.6623,13.8593],[120.6634,13.7754],[120.6281,13.8109],[120.6184,13.9316],[120.6013,13.9691],[120.6348,13.9916],[120.6174,14.0179],[120.6195,14.1042],[120.5803,14.133],[120.5974,14.1569],[120.5735,14.1745],[120.6013,14.1814],[120.5873,14.2003],[120.6275,14.2696],[120.7131,14.2985],[120.8779,14.4589],[120.9261,14.4647],[120.9704,14.5019],[120.9802,14.5574],[120.9365,14.6674],[120.9024,14.7189],[120.8472,14.7437],[120.8406,14.7612],[120.6421,14.787],[120.6213,14.8729],[120.6213,14.8319],[120.5939,14.8183],[120.6057,14.8848],[120.5857,14.9028],[120.5735,14.8388],[120.5527,14.8499],[120.5452,14.8369],[120.5365,14.7232],[120.5822,14.6483],[120.575,14.6216],[120.5979,14.5056],[120.5646,14.4412],[120.4915,14.4421],[120.4671,14.421],[120.382,14.4803],[120.3674,14.6208],[120.3264,14.6475],[120.2969,14.6448],[120.2532,14.6986],[120.2424,14.7296],[120.2726,14.7471],[120.2439,14.767],[120.2922,14.8257],[120.2678,14.8295],[120.2598,14.8515],[120.2093,14.88],[120.1755,14.7574],[120.1278,14.767],[120.0799,14.8039],[120.1004,14.8257],[120.0799,14.8183],[120.0567,14.8933],[120.053,15.0624],[120.0181,15.2061],[120.0025,15.2197],[120.0051,15.2694],[119.8882,15.429],[119.9087,15.4523],[119.9019,15.483],[119.9409,15.4758],[119.9639,15.5143],[119.9043,15.5971],[119.9197,15.6903],[119.8672,15.7431],[119.8941,15.7639],[119.895,15.874],[119.854,15.9492],[119.8283,15.9557],[119.7708,15.915],[119.7559,15.9446],[119.7578,16.059],[119.7783,16.1378],[119.7557,16.2034],[119.8019,16.3579],[119.8916,16.3874],[119.9258,16.365],[119.9019,16.2508],[119.9702,16.2265],[120.0151,16.1819],[120.0501,16.1809],[120.0877,16.1572],[120.1192,16.0557],[120.2085,16.0327],[120.2922,16.0556],[120.3067,16.0447],[120.2991,16.0174],[120.3338,16.059],[120.3674,16.0658],[120.3264,16.0658],[120.3977,16.154],[120.4021,16.2058],[120.3855,16.2519],[120.3538,16.2917],[120.3538,16.2713],[120.3363,16.2922],[120.2991,16.4938],[120.3067,16.545],[120.2761,16.6119],[120.3067,16.6139],[120.3025,16.655],[120.3259,16.7126],[120.3196,16.8193],[120.4341,16.9821],[120.4164,17.1793],[120.4021,17.2067],[120.4082,17.3227],[120.4437,17.3885],[120.4021,17.5189],[120.3408,17.5388],[120.3338,17.5564],[120.3532,17.6781],[120.4124,17.7128],[120.4164,17.7448],[120.3913,17.7814],[120.4279,17.8381],[120.4279,17.9167],[120.4772,18.0048],[120.4701,18.091],[120.5791,18.3251],[120.585,18.4055],[120.5608,18.4868],[120.5702,18.5018],[120.6111,18.5386],[120.6907,18.5344],[120.7708,18.5615],[120.779,18.6218],[120.813,18.6445],[120.8508,18.6389],[120.8919,18.5799],[120.9269,18.5662],[121.0183,18.6171],[121.073,18.6218],[121.1068,18.6427],[121.1707,18.6255],[121.2663,18.5549],[121.5921,18.3847],[121.6497,18.314],[121.6346,18.3345],[121.645,18.3695],[121.8528,18.288],[121.9173,18.2786],[121.9746,18.286],[122.0396,18.3202],[122.0786,18.3795],[122.1116,18.3928],[122.1528,18.5188],[122.2354,18.5154],[122.2517,18.4431],[122.3171,18.3774],[122.3202,18.2925],[122.2886,18.2182],[122.1698,18.1005],[122.1834,17.9844],[122.1432,17.7653]]],[[[121.4436,18.8955],[121.4778,18.8819],[121.4067,18.8508],[121.2949,18.8468],[121.2752,18.8759],[121.4168,18.9081],[121.4436,18.8955]]],[[[121.8747,18.965],[121.9024,19.0054],[121.9466,19.0122],[121.9909,18.9611],[121.8657,18.8219],[121.8342,18.8343],[121.8411,18.8682],[121.8748,18.9008],[121.8539,18.9235],[121.8747,18.965]]],[[[121.2092,19.0502],[121.1903,19.0873],[121.2109,19.1767],[121.2298,19.1592],[121.259,19.0457],[121.245,19.0185],[121.2092,19.0502]]],[[[121.3989,19.3034],[121.3508,19.3759],[121.3958,19.4033],[121.5261,19.3823],[121.5247,19.3279],[121.5433,19.2789],[121.5187,19.2791],[121.4983,19.2593],[121.3989,19.3034]]],[[[121.9695,19.5753],[121.9979,19.5603],[121.9872,19.5131],[121.9609,19.4918],[121.8955,19.5466],[121.9002,19.5592],[121.95,19.5603],[121.9695,19.5753]]],[[[121.8384,20.3408],[121.8594,20.3474],[121.8932,20.3137],[121.8693,20.2762],[121.8508,20.2734],[121.8384,20.3408]]],[[[121.9802,20.473],[122.0098,20.4885],[122.0324,20.4641],[121.9637,20.4066],[121.9739,20.3793],[121.958,20.355],[121.9221,20.3542],[121.9224,20.3933],[121.9802,20.473]]],[[[121.8298,20.699],[121.8034,20.6911],[121.7864,20.7031],[121.7912,20.73],[121.8377,20.8203],[121.866,20.8382],[121.8772,20.7703],[121.8298,20.699]]],[[[121.9564,6.4281],[121.8801,6.5032],[121.875,6.5749],[121.8145,6.5929],[121.8068,6.6193],[121.822,6.661],[121.9402,6.6773],[122.0231,6.7366],[122.0752,6.7398],[122.3352,6.6033],[122.2354,6.5712],[122.1886,6.4511],[122.0387,6.4102],[121.9623,6.4049],[121.9564,6.4281]]],[[[122.8005,7.3209],[122.7942,7.3839],[122.8037,7.4175],[122.8284,7.4308],[122.883,7.3973],[122.905,7.4377],[122.9717,7.3836],[122.9445,7.3898],[122.9507,7.3557],[122.855,7.3148],[122.8421,7.2943],[122.8167,7.2949],[122.8005,7.3209]]],[[[123.4712,9.1855],[123.5,9.2203],[123.5176,9.2099],[123.565,9.2261],[123.6025,9.2554],[123.6144,9.2893],[123.6421,9.2936],[123.7039,9.2333],[123.6834,9.1883],[123.7224,9.1491],[123.698,9.124],[123.653,9.123],[123.6323,9.0983],[123.5612,9.1142],[123.4712,9.1855]]],[[[123.8623,9.6085],[123.7852,9.5523],[123.7498,9.5541],[123.7263,9.587],[123.8206,9.6396],[123.8605,9.6301],[123.8623,9.6085]]],[[[124.422,9.6787],[124.3818,9.6367],[124.2942,9.6068],[124.0652,9.5954],[123.9375,9.6175],[123.8718,9.645],[123.8739,9.7211],[123.8079,9.74],[123.8032,9.7812],[123.8284,9.8428],[123.8861,9.9149],[123.9167,9.9151],[123.9314,9.939],[124.0508,9.9793],[124.0752,10.0483],[124.1159,10.0653],[124.1162,10.0898],[124.1672,10.1374],[124.3313,10.1615],[124.3496,10.151],[124.356,10.1103],[124.3968,10.1519],[124.4191,10.1068],[124.5886,10.0239],[124.5562,9.9257],[124.5846,9.8777],[124.5498,9.8616],[124.624,9.8018],[124.5962,9.7373],[124.5204,9.7404],[124.5144,9.767],[124.4998,9.7683],[124.4295,9.715],[124.422,9.6787]]],[[[123.2355,10.0019],[123.1567,9.8676],[123.1704,9.696],[123.1604,9.6474],[123.1362,9.6448],[123.1354,9.6184],[123.1774,9.5899],[123.1704,9.5629],[123.1611,9.5838],[123.1355,9.5527],[123.19,9.5268],[123.1976,9.4871],[123.2515,9.444],[123.2673,9.3983],[123.3211,9.3432],[123.3283,9.3026],[123.2986,9.215],[123.2302,9.1076],[123.161,9.0657],[123.0332,9.0353],[122.9905,9.0488],[122.9577,9.0812],[122.8926,9.221],[122.8805,9.3059],[122.8449,9.3471],[122.7248,9.3711],[122.6572,9.4014],[122.636,9.4257],[122.5995,9.4327],[122.5518,9.491],[122.5298,9.5379],[122.4966,9.5617],[122.4614,9.6553],[122.4436,9.6728],[122.4231,9.6584],[122.4304,9.7137],[122.4026,9.6994],[122.4098,9.8085],[122.3952,9.8428],[122.4746,9.9744],[122.5603,9.9875],[122.6428,9.9669],[122.7078,9.9864],[122.7822,10.053],[122.8074,10.0693],[122.8269,10.0581],[122.8449,10.0673],[122.8728,10.1004],[122.8553,10.228],[122.8694,10.3505],[122.8147,10.515],[122.9104,10.5976],[122.9717,10.7211],[122.9717,10.8061],[122.9507,10.8272],[122.9663,10.8764],[123.0026,10.9128],[123.0877,10.9259],[123.2136,10.9964],[123.2598,10.9948],[123.3418,10.9464],[123.3901,10.96],[123.4036,10.9532],[123.4054,10.9198],[123.4456,10.9423],[123.5218,10.9199],[123.5466,10.8561],[123.5755,10.8256],[123.5708,10.7792],[123.5169,10.681],[123.4857,10.5491],[123.3897,10.4372],[123.3447,10.348],[123.3403,10.2607],[123.3047,10.1785],[123.2966,10.1115],[123.2355,10.0019]]],[[[124.0386,10.3295],[123.976,10.2554],[123.9332,10.2543],[123.9478,10.3065],[123.9916,10.3243],[124.0094,10.3118],[124.0386,10.3295]]],[[[123.9905,10.3688],[123.9729,10.371],[123.9729,10.3266],[123.8897,10.2822],[123.8687,10.2482],[123.7936,10.2265],[123.7195,10.1568],[123.6961,10.0939],[123.6526,10.0636],[123.6291,9.8875],[123.6018,9.8676],[123.4795,9.5486],[123.3696,9.4257],[123.3276,9.4081],[123.3143,9.5076],[123.3652,9.7853],[123.4092,9.8977],[123.4107,9.9226],[123.3833,9.9427],[123.3871,9.9738],[123.3984,9.9848],[123.4107,9.9744],[123.4225,10.0375],[123.508,10.1222],[123.5335,10.1904],[123.5813,10.2543],[123.6055,10.3332],[123.7232,10.4942],[123.7191,10.5491],[123.7778,10.6626],[123.8493,10.7526],[123.9346,10.9704],[123.9177,11.029],[123.9451,11.0978],[123.9729,11.0773],[123.9588,11.1759],[124.0457,11.2772],[124.0747,11.2691],[124.0681,11.2333],[124.0413,11.1301],[123.9995,11.0773],[124.0171,11.0562],[124.0549,11.0637],[124.0535,10.9306],[124.0685,10.8781],[124.0208,10.7477],[124.0549,10.5901],[124.0339,10.5765],[124.04,10.4844],[124.0098,10.404],[124.0187,10.3808],[123.9928,10.3574],[123.9905,10.3688]]],[[[122.5193,10.4741],[122.4824,10.5034],[122.5169,10.5091],[122.5535,10.5491],[122.5274,10.5701],[122.5366,10.6075],[122.5746,10.6658],[122.6232,10.6845],[122.6338,10.7226],[122.6702,10.762],[122.738,10.6942],[122.7371,10.64],[122.6869,10.506],[122.6345,10.4442],[122.595,10.4331],[122.6052,10.4605],[122.5945,10.4597],[122.5366,10.4194],[122.5193,10.4741]]],[[[123.126,11.2168],[123.1362,11.1965],[123.1082,11.1518],[123.0413,11.1634],[123.0283,11.1098],[122.9717,11.0699],[122.9724,11.049],[122.9507,11.0358],[122.9382,11.0637],[122.9246,11.029],[122.8899,11.0358],[122.8626,11.0153],[122.8626,11.029],[122.7893,10.9761],[122.78,10.9569],[122.798,10.8754],[122.7448,10.7956],[122.6941,10.803],[122.6306,10.7744],[122.6012,10.741],[122.5899,10.6987],[122.2266,10.6422],[122.1018,10.5693],[122.0158,10.4455],[121.9497,10.4332],[121.9297,10.4666],[121.9325,10.5087],[121.9722,10.5821],[121.9849,10.6473],[121.978,10.7102],[121.937,10.7757],[121.978,10.9055],[122.0451,11.0174],[122.0531,11.2338],[122.0418,11.3004],[122.0661,11.3602],[122.1072,11.6579],[122.0845,11.7247],[121.8539,11.7694],[121.889,11.8193],[121.8968,11.8938],[121.9637,11.9339],[122.0303,11.8963],[122.0944,11.8347],[122.2287,11.7998],[122.3221,11.7423],[122.3772,11.7332],[122.5125,11.5981],[122.5881,11.5634],[122.6042,11.5171],[122.6223,11.5087],[122.6545,11.5261],[122.6604,11.5688],[122.7043,11.5429],[122.6956,11.5613],[122.7308,11.5922],[122.7248,11.6118],[122.8303,11.6053],[122.855,11.5913],[122.8748,11.5479],[122.9445,11.5224],[122.8758,11.4656],[122.8761,11.4473],[122.9007,11.4379],[123.0896,11.5297],[123.1636,11.5981],[123.1644,11.538],[123.1221,11.5087],[123.1292,11.4938],[123.1499,11.4945],[123.1404,11.4793],[123.1704,11.4808],[123.1748,11.4675],[123.1567,11.4231],[123.1604,11.3804],[123.1221,11.3306],[123.1135,11.2667],[123.126,11.2168]]],[[[123.7458,11.1388],[123.7048,11.2412],[123.7458,11.2925],[123.818,11.1547],[123.7458,11.1388]]],[[[123.2345,11.4824],[123.209,11.4622],[123.1807,11.4831],[123.2292,11.5163],[123.2345,11.4824]]],[[[124.1463,12.053],[124.182,12.0801],[124.228,12.0737],[124.1785,12.0396],[124.1463,12.053]]],[[[123.7251,11.9449],[123.7161,11.9667],[123.7458,11.9811],[123.7327,12.0084],[123.7191,11.9953],[123.6594,12.043],[123.653,12.0693],[123.6707,12.071],[123.6148,12.0793],[123.6039,12.1187],[123.5464,12.1881],[123.4854,12.2181],[123.4242,12.2008],[123.3648,12.106],[123.3284,12.0853],[123.266,12.0075],[123.1814,11.9309],[123.1597,11.9178],[123.1499,11.9302],[123.1647,11.9944],[123.1901,12.0117],[123.216,12.1335],[123.2319,12.1257],[123.2443,12.1498],[123.2772,12.1643],[123.2598,12.194],[123.2946,12.2172],[123.294,12.2355],[123.2181,12.2281],[123.2178,12.2654],[123.2488,12.3071],[123.2734,12.4237],[123.2424,12.4646],[123.2347,12.5928],[123.3565,12.5493],[123.3384,12.5469],[123.356,12.4956],[123.3267,12.4679],[123.3264,12.4381],[123.3728,12.4714],[123.3865,12.5125],[123.4341,12.5186],[123.4956,12.4686],[123.5524,12.4566],[123.6092,12.3857],[123.5881,12.351],[123.637,12.3703],[123.6477,12.3483],[123.6882,12.3378],[123.7936,12.1872],[123.7949,12.2469],[123.8488,12.2008],[123.8897,12.2077],[124.0503,11.9711],[124.0549,11.9544],[123.9995,12.0084],[124.0618,11.8616],[124.0685,11.7279],[124.0549,11.7256],[124.008,11.7967],[123.8903,11.8708],[123.8556,11.9134],[123.7874,11.9265],[123.764,11.9157],[123.7251,11.9449]]],[[[122.4446,12.4837],[122.5942,12.4926],[122.6437,12.4795],[122.6875,12.4028],[122.6702,12.3175],[122.6118,12.2765],[122.5535,12.3175],[122.512,12.3776],[122.4319,12.4097],[122.423,12.4629],[122.4446,12.4837]]],[[[124.1338,12.4594],[124.1336,12.4708],[124.1605,12.456],[124.182,12.4069],[124.1686,12.3981],[124.1491,12.4147],[124.1338,12.4594]]],[[[123.6963,12.6284],[123.7039,12.6188],[123.6912,12.6117],[123.7327,12.5913],[123.7894,12.4091],[123.7905,12.338],[123.5832,12.6239],[123.5813,12.6464],[123.5973,12.6413],[123.6183,12.6873],[123.6963,12.6284]]],[[[122.3113,12.5367],[122.3098,12.5011],[122.2796,12.4745],[122.2546,12.5112],[122.2456,12.5707],[122.2796,12.6191],[122.3113,12.5367]]],[[[122.9507,13.0437],[122.9445,13.1113],[122.9889,13.129],[122.9922,13.1536],[123.0398,13.1281],[123.1221,13.0198],[123.1602,12.9376],[123.2014,12.9064],[123.262,12.8979],[123.2866,12.815],[123.3609,12.7365],[123.3758,12.6936],[123.252,12.8327],[123.1853,12.8585],[123.0606,12.9885],[122.9739,13.0187],[122.9507,13.0437]]],[[[122.0947,12.9425],[122.0842,12.9166],[122.0597,12.9093],[122.0341,12.9569],[122.0925,12.9605],[122.0947,12.9425]]],[[[124.0656,13.2108],[124.1388,13.2342],[124.1979,13.213],[124.2092,13.1782],[124.0979,13.1925],[124.0656,13.2108]]],[[[123.9868,13.276],[124.0169,13.2803],[124.0326,13.2668],[124.0477,13.279],[124.0863,13.2604],[124.0254,13.222],[123.9393,13.2445],[123.9124,13.2886],[123.9868,13.276]]],[[[123.9221,13.32],[123.8903,13.2741],[123.9019,13.2383],[123.8735,13.2296],[123.846,13.2702],[123.8511,13.3176],[123.8368,13.3447],[123.8589,13.3538],[123.9221,13.32]]],[[[123.8106,13.9187],[123.8151,13.9746],[123.8348,13.9767],[123.8348,13.8942],[123.8106,13.9187]]],[[[123.6202,13.9485],[123.6359,13.9626],[123.6527,13.9531],[123.6423,13.9821],[123.6747,13.952],[123.6201,13.9089],[123.6032,13.9166],[123.5953,13.9472],[123.6056,13.9612],[123.6202,13.9485]]],[[[121.9681,14.2214],[122.1727,14.0535],[122.177,14.0071],[122.1361,14.0192],[121.9652,14.143],[121.9235,14.2087],[121.9451,14.2326],[121.9681,14.2214]]],[[[122.3643,14.7206],[122.397,14.7322],[122.4196,14.7051],[122.3978,14.6859],[122.3193,14.6835],[122.3164,14.6989],[122.3643,14.7206]]],[[[122.197,14.8329],[122.1971,14.8039],[122.2482,14.7882],[122.2566,14.7459],[122.2422,14.7363],[122.1629,14.7978],[122.1213,14.8069],[122.105,14.8378],[122.1358,14.8524],[122.146,14.8336],[122.197,14.8329]]],[[[122.1546,18.5671],[122.1468,18.5264],[122.1126,18.507],[122.1152,18.5713],[122.1375,18.5825],[122.1546,18.5671]]],[[[126.7444,4.5456],[126.8163,4.5465],[126.843,4.5049],[126.875,4.4943],[126.8848,4.4569],[126.8655,4.4],[126.698,4.4],[126.7395,4.4731],[126.7444,4.5456]]],[[[125.4234,5.3779],[125.3638,5.3672],[125.3335,5.3925],[125.3582,5.4221],[125.4048,5.4305],[125.4222,5.4202],[125.4234,5.3779]]],[[[125.4666,5.4581],[125.4562,5.4683],[125.4806,5.4933],[125.4967,5.4723],[125.4914,5.4243],[125.4655,5.3915],[125.4502,5.4351],[125.4666,5.4581]]],[[[125.6786,6.9332],[125.6737,6.9588],[125.7056,6.9618],[125.7176,6.9063],[125.6904,6.9122],[125.6786,6.9332]]],[[[125.6891,7.1161],[125.7158,7.1959],[125.7819,7.1352],[125.7937,6.9395],[125.7769,6.894],[125.7454,6.937],[125.7176,7.0522],[125.6741,7.0702],[125.6891,7.1161]]],[[[126.3495,7.0001],[126.3096,6.9489],[126.3018,6.8933],[126.3433,6.8492],[126.3396,6.7865],[126.3088,6.798],[126.2427,6.9193],[126.2129,6.934],[126.1919,6.9251],[126.1926,6.8834],[126.1721,6.9039],[126.168,6.8826],[126.2079,6.8059],[126.2546,6.7667],[126.2572,6.7448],[126.2288,6.6162],[126.2269,6.4689],[126.2002,6.2832],[126.1857,6.2869],[126.1755,6.3626],[126.1413,6.3862],[126.1379,6.4309],[126.0951,6.5141],[126.0827,6.6397],[126.096,6.7472],[126.0791,6.8425],[126.0221,6.8668],[125.9834,6.9209],[125.9865,7.0063],[125.9026,7.1011],[125.8506,7.2539],[125.8532,7.336],[125.8454,7.3502],[125.8069,7.3511],[125.6683,7.257],[125.6444,7.0991],[125.6035,7.0546],[125.5099,7.0156],[125.4875,6.9789],[125.4806,6.9132],[125.4036,6.8118],[125.3776,6.6742],[125.4055,6.5889],[125.4346,6.5882],[125.4321,6.6158],[125.5345,6.5128],[125.5532,6.5248],[125.5899,6.4992],[125.6014,6.4279],[125.6448,6.3441],[125.6458,6.2996],[125.7066,6.1497],[125.6992,6.0405],[125.6673,5.9501],[125.499,5.7261],[125.4364,5.6177],[125.403,5.5809],[125.3713,5.5729],[125.3084,5.5796],[125.2883,5.706],[125.2378,5.728],[125.221,5.7664],[125.1812,5.7983],[125.209,5.8769],[125.278,5.9792],[125.2808,6.0194],[125.2507,6.0931],[125.1579,6.1088],[125.1577,6.0743],[125.0887,5.8847],[125.0691,5.8617],[125.0022,5.872],[124.9636,5.8586],[124.6058,5.9923],[124.5859,6.0227],[124.2458,6.1865],[124.2017,6.2217],[124.1766,6.2778],[124.0979,6.3647],[124.0549,6.4377],[124.033,6.5424],[124.0558,6.5527],[124.0366,6.7997],[124.0171,6.8083],[123.9973,6.7861],[123.9652,6.8323],[123.9749,6.9653],[124.0295,7.1151],[124.1838,7.2264],[124.2192,7.28],[124.2209,7.3466],[124.2468,7.4041],[124.176,7.4157],[124.0652,7.6027],[123.9109,7.6989],[123.7942,7.7105],[123.7039,7.8094],[123.5869,7.8393],[123.5049,7.8317],[123.4447,7.8013],[123.4483,7.7664],[123.4978,7.7088],[123.4857,7.6636],[123.4447,7.6301],[123.4001,7.6195],[123.3923,7.5756],[123.3622,7.5891],[123.3535,7.5721],[123.4026,7.4921],[123.4517,7.4525],[123.4578,7.4086],[123.431,7.3687],[123.3421,7.4205],[123.2864,7.4826],[123.2803,7.5202],[123.2438,7.5241],[123.2126,7.4893],[123.1836,7.4809],[123.1406,7.5131],[123.1221,7.5506],[123.1276,7.5726],[123.1773,7.5891],[123.1868,7.6262],[123.1404,7.6614],[123.1179,7.7414],[123.0503,7.6551],[123.0537,7.6225],[123.0332,7.6059],[123.04,7.5816],[123.0122,7.5277],[123.0066,7.4724],[122.9507,7.486],[122.9172,7.5475],[122.8817,7.5174],[122.8626,7.4656],[122.8074,7.4656],[122.8103,7.4861],[122.7857,7.4918],[122.7971,7.5356],[122.8284,7.5277],[122.7937,7.671],[122.8147,7.7434],[122.8044,7.7586],[122.739,7.7541],[122.7043,7.7883],[122.6511,7.7861],[122.5115,7.6957],[122.4439,7.6086],[122.4336,7.5786],[122.4856,7.5785],[122.4544,7.5078],[122.4436,7.4997],[122.451,7.5407],[122.44,7.5419],[122.3599,7.4728],[122.348,7.4525],[122.3791,7.3916],[122.3726,7.3727],[122.345,7.3318],[122.3001,7.3209],[122.2804,7.2945],[122.2435,7.0993],[122.2024,7.0426],[122.1545,6.9281],[122.1237,6.8996],[122.0379,6.9174],[121.937,6.9789],[121.8989,7.0572],[121.8978,7.1403],[121.9334,7.2179],[122.051,7.3078],[122.0326,7.3398],[122.0469,7.4525],[122.0776,7.528],[122.146,7.5888],[122.1135,7.6033],[122.1227,7.7004],[122.0965,7.7447],[122.1289,7.815],[122.2517,7.9801],[122.438,8.0666],[122.4783,8.062],[122.6384,8.1085],[122.6792,8.1642],[122.6919,8.1317],[122.7352,8.1155],[122.9453,8.1619],[123.0137,8.2324],[122.9644,8.2744],[122.9582,8.3085],[122.9964,8.3427],[122.9922,8.3972],[123.042,8.4901],[123.0674,8.5146],[123.1951,8.5422],[123.242,8.5191],[123.3182,8.5335],[123.3716,8.6334],[123.4107,8.6306],[123.4364,8.6495],[123.3919,8.7094],[123.3971,8.7232],[123.4248,8.727],[123.4885,8.6921],[123.513,8.6989],[123.5218,8.6225],[123.5676,8.6101],[123.5813,8.5828],[123.6167,8.6707],[123.6331,8.6684],[123.6291,8.6511],[123.7225,8.6281],[123.7389,8.6027],[123.7588,8.6075],[123.8447,8.4522],[123.883,8.1645],[123.7678,8.059],[123.6847,8.0368],[123.6764,7.9634],[123.9689,8.1678],[124.0363,8.1898],[124.1985,8.1965],[124.2323,8.2129],[124.2747,8.2811],[124.2617,8.3245],[124.3218,8.5146],[124.4058,8.6079],[124.47,8.6248],[124.4802,8.5828],[124.5259,8.5711],[124.5825,8.5207],[124.6575,8.5146],[124.6365,8.432],[124.6631,8.4758],[124.7122,8.473],[124.7532,8.5002],[124.7505,8.5515],[124.7736,8.5964],[124.7463,8.671],[124.7879,8.7336],[124.7817,8.9711],[124.8094,9.0095],[124.9153,8.9941],[125.0344,8.9118],[125.106,8.8298],[125.1873,8.8759],[125.1953,8.9609],[125.1777,9.0074],[125.2088,9.0865],[125.2693,9.0156],[125.3118,8.9943],[125.4412,8.9804],[125.5166,9.0159],[125.5407,9.0841],[125.5393,9.2067],[125.4663,9.4084],[125.3987,9.6811],[125.4071,9.7337],[125.4595,9.8229],[125.5071,9.7799],[125.5892,9.7546],[125.6104,9.6479],[125.6436,9.6113],[125.6929,9.6038],[125.6853,9.5895],[125.7537,9.5759],[125.781,9.5486],[125.849,9.5372],[125.9011,9.4971],[125.9341,9.4923],[125.9524,9.453],[125.9728,9.4803],[125.9675,9.4472],[125.9203,9.4269],[125.911,9.4049],[125.9558,9.3818],[125.9939,9.3978],[125.9966,9.3247],[126.058,9.246],[126.0891,9.2409],[126.1434,9.2614],[126.2,9.3084],[126.2246,9.291],[126.1934,9.2164],[126.179,9.093],[126.2171,9.0725],[126.2402,9.0285],[126.3128,8.9562],[126.3324,8.8611],[126.3455,8.8533],[126.3001,8.7683],[126.2341,8.7336],[126.2615,8.6989],[126.2546,8.6852],[126.1978,8.6883],[126.1384,8.654],[126.1105,8.6071],[126.1585,8.5276],[126.2288,8.5215],[126.2402,8.5276],[126.2205,8.5555],[126.3701,8.5418],[126.4053,8.4926],[126.398,8.4792],[126.4116,8.4661],[126.3701,8.4556],[126.3669,8.4321],[126.3838,8.432],[126.3877,8.4154],[126.3801,8.3956],[126.3325,8.3471],[126.3884,8.2929],[126.3386,8.2146],[126.3616,8.1872],[126.4593,8.2402],[126.4539,8.1293],[126.4662,8.0955],[126.4429,8.0814],[126.4315,8.0456],[126.4531,7.9801],[126.3955,7.9333],[126.3831,7.8857],[126.4061,7.8332],[126.4549,7.7973],[126.4875,7.7467],[126.5829,7.7194],[126.5692,7.6264],[126.6087,7.4653],[126.563,7.4103],[126.5897,7.3898],[126.5692,7.3011],[126.6177,7.2768],[126.6123,7.2579],[126.4764,7.0662],[126.4515,6.9835],[126.3495,7.0001]]],[[[124.7085,9.2502],[124.7463,9.2395],[124.8032,9.1761],[124.8013,9.0963],[124.7879,9.0831],[124.763,9.079],[124.6467,9.1489],[124.6365,9.1824],[124.6467,9.2189],[124.7085,9.2502]]],[[[125.9165,9.6291],[125.9387,9.6728],[125.9273,9.7387],[125.9524,9.7683],[125.9597,9.7472],[125.9728,9.7546],[125.9754,9.6946],[126.0015,9.6767],[125.9785,9.5752],[125.947,9.5662],[125.9529,9.582],[125.9251,9.5895],[125.9387,9.6038],[125.9181,9.6101],[125.9165,9.6291]]],[[[125.9727,9.8415],[125.966,9.8502],[126.0144,9.8645],[125.9798,9.888],[125.9834,9.9018],[126.0447,9.9987],[126.0453,10.0351],[126.0807,10.0557],[126.138,9.9019],[126.1106,9.8571],[126.1535,9.842],[126.1782,9.7878],[126.1201,9.7589],[126.0417,9.7751],[126.0486,9.7546],[125.9939,9.8161],[125.9939,9.8366],[125.9727,9.8415]]],[[[125.1755,10.1455],[125.2393,10.1039],[125.2534,10.0358],[125.2896,9.9917],[125.3062,9.9374],[125.2852,9.9169],[125.1987,10.0358],[125.1375,10.0867],[125.1245,10.1518],[125.1491,10.166],[125.1755,10.1455]]],[[[124.5801,10.1367],[124.6062,10.1476],[124.5977,10.0942],[124.561,10.0858],[124.5404,10.0609],[124.5218,10.112],[124.5801,10.1367]]],[[[125.5852,10.0339],[125.5967,10.0557],[125.6084,10.0436],[125.6172,10.0591],[125.5967,10.0898],[125.521,10.0626],[125.4937,10.1445],[125.5176,10.1694],[125.5142,10.2071],[125.542,10.1997],[125.5221,10.317],[125.5625,10.3308],[125.5625,10.3785],[125.6104,10.371],[125.6242,10.4437],[125.6497,10.4619],[125.6848,10.3999],[125.6838,10.3644],[125.6581,10.2617],[125.6387,10.2614],[125.6377,10.2481],[125.6681,10.2147],[125.6565,10.1763],[125.6853,10.1723],[125.6768,10.1277],[125.7048,10.0818],[125.682,10.0216],[125.6929,9.9744],[125.6815,9.9581],[125.7196,9.9117],[125.7145,9.8808],[125.6636,9.8891],[125.6581,9.939],[125.6104,9.9669],[125.6233,9.9669],[125.6172,9.9936],[125.593,9.993],[125.5852,10.0339]]],[[[124.3784,10.6283],[124.3006,10.5901],[124.2844,10.6038],[124.341,10.7118],[124.3853,10.6798],[124.3784,10.6283]]],[[[124.4624,10.631],[124.4092,10.6483],[124.4085,10.6838],[124.4356,10.7136],[124.5039,10.6933],[124.5207,10.6658],[124.5088,10.6415],[124.4624,10.631]]],[[[125.822,10.7347],[125.8269,10.7089],[125.7694,10.7004],[125.6841,10.7528],[125.6873,10.8052],[125.7092,10.8177],[125.7315,10.8081],[125.7605,10.741],[125.822,10.7347]]],[[[124.5628,10.799],[124.5413,10.7553],[124.4974,10.742],[124.5335,10.8029],[124.5551,10.8129],[124.5628,10.799]]],[[[124.991,10.3813],[124.9797,10.3642],[125.0002,10.1997],[125.0422,10.049],[125.0317,10.0202],[124.8828,10.135],[124.7804,10.1519],[124.7658,10.1859],[124.7922,10.3257],[124.7356,10.4203],[124.801,10.6783],[124.7736,10.831],[124.7327,10.8682],[124.6917,10.9396],[124.6223,11.002],[124.5496,10.9833],[124.5628,10.9315],[124.5145,10.8737],[124.4692,10.9055],[124.447,10.9031],[124.4369,10.9352],[124.396,10.9341],[124.418,11.001],[124.3884,11.0659],[124.418,11.1286],[124.4043,11.3027],[124.3547,11.3287],[124.3491,11.3474],[124.3703,11.3749],[124.3347,11.392],[124.3485,11.3991],[124.3114,11.4668],[124.3006,11.5429],[124.3401,11.551],[124.4431,11.4469],[124.4802,11.3852],[124.4896,11.4467],[124.5033,11.4438],[124.5453,11.409],[124.5942,11.3195],[124.6299,11.3044],[124.678,11.3027],[124.7444,11.3286],[124.8457,11.433],[124.9382,11.42],[124.9841,11.3813],[124.9663,11.2944],[124.9815,11.268],[125.0194,11.2526],[125.0234,11.2279],[125.0418,11.248],[125.0276,11.176],[125.0545,11.0106],[125.0129,10.8447],[125.0138,10.7546],[125.1203,10.7031],[125.1305,10.6658],[125.1941,10.603],[125.1852,10.5324],[125.1987,10.4331],[125.2189,10.3984],[125.2322,10.3869],[125.2466,10.3983],[125.2666,10.3684],[125.2733,10.278],[125.2293,10.2543],[125.1409,10.2788],[125.1511,10.1855],[125.117,10.1975],[125.0689,10.2672],[125.0418,10.3642],[124.991,10.3813]]],[[[124.355,11.6712],[124.3491,11.6801],[124.4309,11.6951],[124.4959,11.6948],[124.5417,11.6752],[124.5916,11.5741],[124.6214,11.5539],[124.6091,11.4866],[124.4671,11.4777],[124.4133,11.5465],[124.355,11.6712]]],[[[124.763,11.6413],[124.7406,11.6506],[124.7224,11.6933],[124.7327,11.7216],[124.7894,11.6849],[124.8286,11.6134],[124.8562,11.6049],[124.8389,11.54],[124.802,11.5825],[124.7879,11.5702],[124.7736,11.6049],[124.7879,11.5981],[124.7854,11.6143],[124.763,11.6413]]],[[[124.8235,11.7094],[124.8338,11.6929],[124.8893,11.6765],[124.8713,11.6525],[124.8737,11.6249],[124.8332,11.6326],[124.8235,11.7094]]],[[[124.3036,11.8102],[124.3374,11.8146],[124.3472,11.8013],[124.3362,11.7674],[124.3005,11.7748],[124.2916,11.7888],[124.3036,11.8102]]],[[[125.6001,11.1183],[125.5638,11.1568],[125.5383,11.1457],[125.5278,11.0904],[125.4697,11.1286],[125.4247,11.0904],[125.4165,11.1166],[125.3975,11.1047],[125.3171,11.1496],[125.2757,11.1356],[125.2468,11.0922],[125.2189,11.1181],[125.1987,11.2275],[125.1724,11.2652],[125.1328,11.2821],[125.001,11.2898],[124.9917,11.318],[125.007,11.4262],[124.938,11.4628],[124.9115,11.5019],[124.8875,11.4655],[124.8561,11.473],[124.8283,11.5087],[124.9001,11.5488],[124.8903,11.5702],[124.9487,11.5702],[124.9778,11.5928],[125.0002,11.6248],[124.9968,11.6834],[125.0344,11.7279],[125.0554,11.7142],[125.0437,11.7578],[125.0036,11.7756],[124.9282,11.7414],[124.8924,11.7615],[124.8335,11.8454],[124.7941,11.8581],[124.8079,11.865],[124.7941,11.8712],[124.8079,11.8991],[124.8283,11.8854],[124.824,11.9058],[124.7949,11.9164],[124.7611,11.9013],[124.7621,11.929],[124.7395,11.9265],[124.7293,11.978],[124.6799,12.0297],[124.5693,12.0508],[124.4932,12.0978],[124.3908,12.2219],[124.3421,12.3857],[124.2762,12.5333],[124.2935,12.58],[124.363,12.5436],[124.4075,12.5571],[124.5368,12.5225],[124.6792,12.5159],[124.8772,12.5334],[124.8955,12.5543],[124.8767,12.5913],[124.9282,12.5571],[124.9734,12.5763],[125.0496,12.5294],[125.0918,12.5473],[125.1091,12.5793],[125.1663,12.5781],[125.2721,12.499],[125.3496,12.3994],[125.3128,12.3667],[125.3079,12.3419],[125.3291,12.3237],[125.3148,12.2964],[125.3565,12.3175],[125.3496,12.2895],[125.3906,12.3039],[125.3845,12.285],[125.4321,12.2827],[125.5005,12.2486],[125.5383,12.1835],[125.5376,12.1724],[125.4793,12.1667],[125.5073,12.1462],[125.4595,12.1257],[125.4574,12.1071],[125.5005,12.1046],[125.4937,12.091],[125.5252,12.057],[125.4458,11.9473],[125.4595,11.8303],[125.4937,11.7902],[125.4837,11.7762],[125.4572,11.7857],[125.4502,11.7504],[125.4816,11.7573],[125.5005,11.7011],[125.499,11.6758],[125.4663,11.6527],[125.479,11.6475],[125.4663,11.6118],[125.4905,11.5947],[125.4979,11.5483],[125.5309,11.4916],[125.521,11.4604],[125.5488,11.4604],[125.5586,11.4248],[125.6377,11.3685],[125.635,11.3265],[125.5662,11.2681],[125.555,11.2119],[125.5991,11.1891],[125.6309,11.2003],[125.6161,11.2189],[125.6289,11.2363],[125.6936,11.1926],[125.7796,11.0524],[125.7605,11.0228],[125.7196,11.0495],[125.7061,11.1168],[125.6515,11.1494],[125.6001,11.1183]]],[[[124.4218,11.9206],[124.4518,11.9288],[124.4626,11.8909],[124.4165,11.8936],[124.4218,11.9206]]],[[[124.3027,11.8996],[124.2841,11.9009],[124.2784,11.9234],[124.3311,11.9595],[124.3027,11.8996]]],[[[124.2788,12.406],[124.2741,12.3662],[124.2489,12.403],[124.2455,12.4606],[124.2788,12.406]]],[[[125.0561,12.5618],[125.0283,12.5566],[125.0099,12.5703],[124.9873,12.6401],[125.0151,12.5995],[125.0581,12.5852],[125.0561,12.5618]]],[[[125.0427,12.6845],[125.0617,12.6834],[125.0851,12.6057],[125.0373,12.621],[125.0496,12.6398],[125.0264,12.6543],[125.0427,12.6845]]],[[[124.3491,13.6328],[124.3347,13.5576],[124.2935,13.6041],[124.2516,13.5992],[124.2227,13.5819],[124.1878,13.5229],[124.0859,13.6],[124.0474,13.606],[124.0261,13.6696],[124.1074,13.7451],[124.1294,13.8183],[124.1208,13.8759],[124.1359,13.9073],[124.1162,13.989],[124.1359,14.0106],[124.1245,14.0494],[124.1369,14.0784],[124.1497,14.0622],[124.1936,14.09],[124.2157,14.0865],[124.2656,14.0227],[124.2774,13.9555],[124.3081,13.9282],[124.3081,13.9064],[124.3298,13.9331],[124.418,13.873],[124.39,13.8456],[124.418,13.7978],[124.39,13.7904],[124.39,13.7116],[124.4087,13.6673],[124.3553,13.6596],[124.3491,13.6328]]]]}}]}